[Satellite]
VERSION=1.1
NAME=FLOCK 3P-37
NICKNAME=FLOCK 3P-37
TLE1=1 41953U 17008F   17186.12672045  .00002196  00000-0  96471-4 0  9997
TLE2=2 41953  97.4951 247.5170 0008894 143.5813 216.6030 15.22968313 21279
